GAOFEN-3                
1 41727U 16049A   26060.54825978  .00000247  00000+0  88191-4 0  9996
2 41727  98.4053  69.9428 0001596  95.8863 264.2509 14.42214380503139
SKYSAT-C4               
1 41771U 16058B   26060.49574677  .00019700  00000+0  41863-3 0  9994
2 41771  96.9299  86.9717 0001013  71.5354 288.6006 15.45033120528823
SKYSAT-C5               
1 41772U 16058C   26060.08562854  .00009683  00000+0  29568-3 0  9991
2 41772  97.0637 105.5215 0002009  85.1273 275.0200 15.34092712527173
SKYSAT-C2               
1 41773U 16058D   26060.06382415  .00013382  00000+0  34344-3 0  9992
2 41773  97.0295  86.3588 0005391  87.5170 272.6694 15.39426096528400
SKYSAT-C3               
1 41774U 16058E   26060.09044634  .00022692  00000+0  43718-3 0  9993
2 41774  96.9191  95.3279 0001562  97.2200 262.9229 15.47869697529368
ALSAT-1B                
1 41785U 16059C   26060.51507228  .00000413  00000+0  72980-4 0  9997
2 41785  97.7807  73.9109 0008452 204.8186 155.2616 14.72176632504736
PATHFINDER 1            
1 41787U 16059E   26060.48027784  .00000951  00000+0  17513-3 0  9996
2 41787  97.8174  64.6274 0028254 186.8102 173.2723 14.67500833503911
SCATSAT 1               
1 41790U 16059H   26060.13080476  .00001574  00000+0  21446-3 0  9991
2 41790  98.1324 122.7445 0053916 235.4675 124.1439 14.79229574 85615
GOKTURK 1A              
1 41875U 16073A   26060.50948064  .00000289  00000+0  65977-4 0  9998
2 41875  98.1381 316.8008 0001375  79.8870 280.2486 14.62738074493084
RESOURCESAT-2A          
1 41877U 16074A   26060.52631517  .00000475  00000+0  23700-3 0  9999
2 41877  98.7625 134.8767 0002844  53.0299 307.1138 14.21598071479009
CARTOSAT-2D             
1 41948U 17008A   26060.47210507  .00006259  00000+0  29976-3 0  9999
2 41948  97.4258 121.7135 0004272 250.5883 109.4890 15.19287760501226
SENTINEL-2B             
1 42063U 17013A   26060.51518377  .00000351  00000+0  15061-3 0  9992
2 42063  98.5677 136.8278 0001095  92.6480 267.4828 14.30817065469245
CARTOSAT-2E             
1 42767U 17036C   26060.48899986  .00009456  00000+0  45179-3 0  9990
2 42767  97.4426 121.9915 0003152 334.4202  25.6876 15.19233522481793
FORMOSAT-5              
1 42920U 17049A   26060.46553230  .00000241  00000+0  72155-4 0  9990
2 42920  98.2327 138.1507 0012072  59.8079 300.4310 14.50816081451055
SENTINEL-5P             
1 42969U 17064A   26060.42838807  .00000082  00000+0  60112-4 0  9995
2 42969  98.7872   3.3520 0001116  81.0539 279.0763 14.19546736434271
SKYSAT-C11              
1 42987U 17068A   26060.39988051  .00031020  00000+0  51978-3 0  9997
2 42987  97.4181 205.1145 0000742  86.1740 273.9597 15.51795769466495
SKYSAT-C10              
1 42988U 17068B   26060.37437855  .00013475  00000+0  43244-3 0  9998
2 42988  97.4316 196.4489 0001198  93.1776 266.9602 15.32437382465831
SKYSAT-C9               
1 42989U 17068C   26060.32405865  .00018155  00000+0  47788-3 0  9997
2 42989  97.4240 196.3648 0009554 160.4510 199.7104 15.38560862466154
SKYSAT-C8               
1 42990U 17068D   26060.37006009  .00015211  00000+0  45586-3 0  9995
2 42990  97.4337 195.8549 0001015 100.0567 260.0790 15.34591154465766
SKYSAT-C7               
1 42991U 17068E   26060.35984480  .00014380  00000+0  43269-3 0  9994
2 42991  97.4347 196.8269 0007339 129.3858 230.8036 15.34451844465826
SKYSAT-C6               
1 42992U 17068F   26060.34486128  .00013054  00000+0  41816-3 0  9993
2 42992  97.4381 197.1196 0003479 133.0238 227.1295 15.32501402465799
CARTOSAT-2F             
1 43111U 18004A   26060.52096196  .00007853  00000+0  37455-3 0  9994
2 43111  97.4182 121.8286 0000801 235.9811 124.1347 15.19354975450986
GAOFEN-1 02             
1 43259U 18031A   26060.54288209  .00001571  00000+0  23309-3 0  9991
2 43259  98.0671 123.3065 0003012  13.2742 346.8546 14.76465364426814
GAOFEN-1 03             
1 43260U 18031B   26060.52101354  .00001074  00000+0  16174-3 0  9996
2 43260  98.0653 123.1535 0004035  70.7646 289.4000 14.76459047426800
GAOFEN-1 04             
1 43262U 18031D   26060.49671230  .00001090  00000+0  16404-3 0  9993
2 43262  98.0673 123.3079 0002088  90.7321 269.4128 14.76460912426797
SENTINEL-3B             
1 43437U 18039A   26060.18963745  .00000146  00000+0  78486-4 0  9996
2 43437  98.6247 129.2467 0000780 126.1210 234.0042 14.26741192408721
GAOFEN-5 01             
1 43461U 18043A   26060.50562675  .00000547  00000+0  12273-3 0  9997
2 43461  98.4450  29.9079 0002921  67.7024 292.4485 14.60512334415975
GAOFEN-6                
1 43484U 18048A   26060.52875745  .00000740  00000+0  11297-3 0  9994
2 43484  97.7897 127.0977 0012566 159.5078 200.6639 14.76578165417503
GAOFEN-11 01            
1 43585U 18063A   26060.48703741  .00022926  00000+0  38267-3 0  9990
2 43585  97.1439 127.8551 0004645  30.2888 329.8633 15.51948124423628
ICESAT-2                
1 43613U 18070A   26060.50763344  .00003674  00000+0  13344-3 0  9996
2 43613  91.9991 261.9671 0002767 135.5555 224.5917 15.28261466416013
HYSIS                   
1 43719U 18096A   26060.48042799  .00001707  00000+0  24018-3 0  9997
2 43719  97.9966 128.0183 0001678 102.3398 257.8001 14.78633698391509
