OBJECT_NAME,OBJECT_ID,EPOCH,MEAN_MOTION,ECCENTRICITY,INCLINATION,RA_OF_ASC_NODE,ARG_OF_PERICENTER,MEAN_ANOMALY,EPHEMERIS_TYPE,CLASSIFICATION_TYPE,NORAD_CAT_ID,ELEMENT_SET_NO,REV_AT_EPOCH,BSTAR,MEAN_MOTION_DOT,MEAN_MOTION_DDOT
GAOFEN-3,2016-049A,2026-03-01T13:09:29.644992,14.42214380,.0001596,98.4053,69.9428,95.8863,264.2509,0,U,41727,999,50313,.88191E-4,.247E-5,0
SKYSAT-C4,2016-058B,2026-03-01T11:53:52.520928,15.45033120,.0001013,96.9299,86.9717,71.5354,288.6006,0,U,41771,999,52882,.41863E-3,.197E-3,0
SKYSAT-C5,2016-058C,2026-03-01T02:03:18.305856,15.34092712,.00020094,97.0637,105.5215,85.1273,275.0200,0,U,41772,999,52717,.29568183E-3,.9683E-4,0
SKYSAT-C2,2016-058D,2026-03-01T01:31:54.406560,15.39426096,.00053915,97.0295,86.3588,87.5170,272.6694,0,U,41773,999,52840,.34343709E-3,.13382E-3,0
SKYSAT-C3,2016-058E,2026-03-01T02:10:14.563776,15.47869697,.00015624,96.9191,95.3279,97.2200,262.9229,0,U,41774,999,52936,.43718323E-3,.22692E-3,0
ALSAT-1B,2016-059C,2026-03-01T12:21:42.244992,14.72176632,.0008452,97.7807,73.9109,204.8186,155.2616,0,U,41785,999,50473,.7298E-4,.413E-5,0
PATHFINDER 1,2016-059E,2026-03-01T11:31:36.005376,14.67500833,.0028254,97.8174,64.6274,186.8102,173.2723,0,U,41787,999,50391,.17513E-3,.951E-5,0
SCATSAT 1,2016-059H,2026-03-01T03:08:21.531264,14.79229574,.00539165,98.1324,122.7445,235.4675,124.1439,0,U,41790,999,8561,.21445861E-3,.1574E-4,0
GOKTURK 1A,2016-073A,2026-03-01T12:13:39.127296,14.62738074,.0001375,98.1381,316.8008,79.8870,280.2486,0,U,41875,999,49308,.65977E-4,.289E-5,0
RESOURCESAT-2A,2016-074A,2026-03-01T12:37:53.630688,14.21598071,.0002844,98.7625,134.8767,53.0299,307.1138,0,U,41877,999,47900,.237E-3,.475E-5,0
CARTOSAT-2D,2017-008A,2026-03-01T11:19:49.878048,15.19287760,.0004272,97.4258,121.7135,250.5883,109.4890,0,U,41948,999,50122,.29976E-3,.6259E-4,0
SENTINEL-2B,2017-013A,2026-03-01T12:21:51.877728,14.30817065,.0001095,98.5677,136.8278,92.6480,267.4828,0,U,42063,999,46924,.15061E-3,.351E-5,0
CARTOSAT-2E,2017-036C,2026-03-01T11:44:09.587904,15.19233522,.0003152,97.4426,121.9915,334.4202,25.6876,0,U,42767,999,48179,.45179E-3,.9456E-4,0
FORMOSAT-5,2017-049A,2026-03-01T11:10:21.990720,14.50816081,.0012072,98.2327,138.1507,59.8079,300.4310,0,U,42920,999,45105,.72155E-4,.241E-5,0
SENTINEL-5P,2017-064A,2026-03-01T10:16:52.729248,14.19546736,.0001116,98.7872,3.3520,81.0539,279.0763,0,U,42969,999,43427,.60112E-4,.82E-6,0
SKYSAT-C11,2017-068A,2026-03-01T09:35:49.676064,15.51795769,.0000742,97.4181,205.1145,86.1740,273.9597,0,U,42987,999,46649,.51978E-3,.3102E-3,0
SKYSAT-C10,2017-068B,2026-03-01T08:59:06.306720,15.32437382,.0001198,97.4316,196.4489,93.1776,266.9602,0,U,42988,999,46583,.43244E-3,.13475E-3,0
SKYSAT-C9,2017-068C,2026-03-01T07:46:38.667360,15.38560862,.0009554,97.4240,196.3648,160.4510,199.7104,0,U,42989,999,46615,.47788E-3,.18155E-3,0
SKYSAT-C8,2017-068D,2026-03-01T08:52:53.191776,15.34591154,.0001015,97.4337,195.8549,100.0567,260.0790,0,U,42990,999,46576,.45586E-3,.15211E-3,0
SKYSAT-C7,2017-068E,2026-03-01T08:38:10.590720,15.34451844,.0007339,97.4347,196.8269,129.3858,230.8036,0,U,42991,999,46582,.43269E-3,.1438E-3,0
SKYSAT-C6,2017-068F,2026-03-01T08:16:36.014592,15.32501402,.0003479,97.4381,197.1196,133.0238,227.1295,0,U,42992,999,46579,.41816E-3,.13054E-3,0
CARTOSAT-2F,2018-004A,2026-03-01T12:30:11.113344,15.19354975,.0000801,97.4182,121.8286,235.9811,124.1347,0,U,43111,999,45098,.37455E-3,.7853E-4,0
GAOFEN-1 02,2018-031A,2026-03-01T13:01:45.012576,14.76465364,.0003012,98.0671,123.3065,13.2742,346.8546,0,U,43259,999,42681,.23309E-3,.1571E-4,0
GAOFEN-1 03,2018-031B,2026-03-01T12:30:15.569856,14.76459047,.0004035,98.0653,123.1535,70.7646,289.4000,0,U,43260,999,42680,.16174E-3,.1074E-4,0
GAOFEN-1 04,2018-031D,2026-03-01T11:55:15.942720,14.76460912,.0002088,98.0673,123.3079,90.7321,269.4128,0,U,43262,999,42679,.16404E-3,.109E-4,0
SENTINEL-3B,2018-039A,2026-03-01T04:33:04.675680,14.26741192,.000078,98.6247,129.2467,126.1210,234.0042,0,U,43437,999,40872,.78486E-4,.146E-5,0
GAOFEN-5 01,2018-043A,2026-03-01T12:08:06.151200,14.60512334,.0002921,98.4450,29.9079,67.7024,292.4485,0,U,43461,999,41597,.12273E-3,.547E-5,0
GAOFEN-6,2018-048A,2026-03-01T12:41:24.643680,14.76578165,.0012566,97.7897,127.0977,159.5078,200.6639,0,U,43484,999,41750,.11297E-3,.74E-5,0
GAOFEN-11 01,2018-063A,2026-03-01T11:41:20.032224,15.51948124,.0004645,97.1439,127.8551,30.2888,329.8633,0,U,43585,999,42362,.38267E-3,.22926E-3,0
ICESAT-2,2018-070A,2026-03-01T12:10:59.529216,15.28261466,.0002767,91.9991,261.9671,135.5555,224.5917,0,U,43613,999,41601,.13344E-3,.3674E-4,0
HYSIS,2018-096A,2026-03-01T11:31:48.978336,14.78633698,.0001678,97.9966,128.0183,102.3398,257.8001,0,U,43719,999,39150,.24018E-3,.1707E-4,0
